{"fetched_at":"2026-07-07T18:29:21.147Z","source":"https://celestrak.org/NORAD/elements/gp.php?NAME=CENTAURI&FORMAT=JSON","constellation":"myriota","records":[{"OBJECT_NAME":"CENTAURI-1","OBJECT_ID":"2018-099BD","EPOCH":"2026-07-07T00:02:14.840160","CLASSIFICATION_TYPE":"U","MEAN_MOTION":15.16571569,"ECCENTRICITY":0.0012444,"INCLINATION":97.4209,"RA_OF_ASC_NODE":239.2968,"ARG_OF_PERICENTER":256.6272,"MEAN_ANOMALY":103.3574,"EPHEMERIS_TYPE":0,"NORAD_CAT_ID":43809,"ELEMENT_SET_NO":999,"REV_AT_EPOCH":41550,"BSTAR":0.00019708,"MEAN_MOTION_DOT":0.00003787,"MEAN_MOTION_DDOT":0},{"OBJECT_NAME":"CENTAURI-6","OBJECT_ID":"2024-066K","EPOCH":"2026-07-07T08:48:43.584768","CLASSIFICATION_TYPE":"U","MEAN_MOTION":15.05988102,"ECCENTRICITY":0.0001311,"INCLINATION":45.6048,"RA_OF_ASC_NODE":149.0952,"ARG_OF_PERICENTER":238.4119,"MEAN_ANOMALY":121.6637,"EPHEMERIS_TYPE":0,"NORAD_CAT_ID":59451,"ELEMENT_SET_NO":999,"REV_AT_EPOCH":12316,"BSTAR":0.00021715,"MEAN_MOTION_DOT":0.00002968,"MEAN_MOTION_DDOT":0},{"OBJECT_NAME":"CENTAURI-7","OBJECT_ID":"2025-009DD","EPOCH":"2026-07-06T21:38:36.229344","CLASSIFICATION_TYPE":"U","MEAN_MOTION":14.9793182,"ECCENTRICITY":0.0002673,"INCLINATION":97.7083,"RA_OF_ASC_NODE":267.9261,"ARG_OF_PERICENTER":118.4453,"MEAN_ANOMALY":241.7039,"EPHEMERIS_TYPE":0,"NORAD_CAT_ID":62708,"ELEMENT_SET_NO":999,"REV_AT_EPOCH":8041,"BSTAR":0.00032099,"MEAN_MOTION_DOT":0.00003725,"MEAN_MOTION_DDOT":0},{"OBJECT_NAME":"CENTAURI-8","OBJECT_ID":"2025-009DK","EPOCH":"2026-07-07T12:45:18.563904","CLASSIFICATION_TYPE":"U","MEAN_MOTION":14.97903455,"ECCENTRICITY":0.0003005,"INCLINATION":97.7046,"RA_OF_ASC_NODE":268.3745,"ARG_OF_PERICENTER":85.8059,"MEAN_ANOMALY":274.3506,"EPHEMERIS_TYPE":0,"NORAD_CAT_ID":62714,"ELEMENT_SET_NO":999,"REV_AT_EPOCH":8052,"BSTAR":0.00013727,"MEAN_MOTION_DOT":0.00001558,"MEAN_MOTION_DDOT":0}]}
