CENTAURI-1              
1 43809U 18099BD  26188.00156065  .00003787  00000+0  19708-3 0  9991
2 43809  97.4209 239.2968 0012444 256.6272 103.3574 15.16571569415505
CENTAURI-6              
1 59451U 24066K   26188.36717112  .00002968  00000+0  21715-3 0  9998
2 59451  45.6048 149.0952 0001311 238.4119 121.6637 15.05988102123165
CENTAURI-7              
1 62708U 25009DD  26187.90180821  .00003725  00000+0  32099-3 0  9994
2 62708  97.7083 267.9261 0002673 118.4453 241.7039 14.97931820 80419
CENTAURI-8              
1 62714U 25009DK  26188.53146486  .00001558  00000+0  13727-3 0  9999
2 62714  97.7046 268.3745 0003005  85.8059 274.3506 14.97903455 80522
